{
  "type": "FeatureCollection",
  "features": [
    {
      "type": "Feature",
      "properties": {
        "norad_id": 63772,
        "name": "BIOMASS",
        "group": "resource",
        "lat": -24.890588219276673,
        "lon": 167.06669685710597,
        "alt_km": 674.7254855668425,
        "timestamp": "2025-12-04T03:47:54.211757+00:00",
        "meta_object_name": "BIOMASS",
        "meta_object_id": "2025-090A",
        "meta_epoch": "2025-12-03T11:32:56.497344",
        "meta_mean_motion": 14.67534999,
        "meta_eccentricity": 0.0001221,
        "meta_inclination": 98.0704,
        "meta_ra_of_asc_node": 162.625,
        "meta_arg_of_pericenter": 79.869,
        "meta_mean_anomaly": 280.2652,
        "meta_ephemeris_type": 0,
        "meta_classification_type": "U",
        "meta_norad_cat_id": 63772,
        "meta_element_set_no": 999,
        "meta_rev_at_epoch": 3198,
        "meta_bstar": 0.00037434,
        "meta_mean_motion_dot": 2.075e-05,
        "meta_mean_motion_ddot": 0,
        "tle_line1": "1 63772U 25090A   25337.48120946  .00002075  00000+0  37434-3 0  9992",
        "tle_line2": "2 63772  98.0704 162.6250 0001221  79.8690 280.2652 14.67534999 31985"
      },
      "geometry": {
        "type": "Point",
        "coordinates": [
          167.06669685710597,
          -24.890588219276673
        ]
      }
    },
    {
      "type": "Feature",
      "properties": {
        "norad_id": 64694,
        "name": "GOSAT-GW (IBUKI GW)",
        "group": "resource",
        "lat": -3.9239396287363597,
        "lon": 93.27035466414007,
        "alt_km": 672.7153760651927,
        "timestamp": "2025-12-04T03:47:54.211767+00:00",
        "meta_object_name": "GOSAT-GW (IBUKI GW)",
        "meta_object_id": "2025-141A",
        "meta_epoch": "2025-11-30T05:41:32.267328",
        "meta_mean_motion": 14.67567435,
        "meta_eccentricity": 0.00014369,
        "meta_inclination": 98.0401,
        "meta_ra_of_asc_node": 269.9775,
        "meta_arg_of_pericenter": 82.921,
        "meta_mean_anomaly": 277.2158,
        "meta_ephemeris_type": 0,
        "meta_classification_type": "U",
        "meta_norad_cat_id": 64694,
        "meta_element_set_no": 999,
        "meta_rev_at_epoch": 2266,
        "meta_bstar": 0.00019762357,
        "meta_mean_motion_dot": 1.074e-05,
        "meta_mean_motion_ddot": 0,
        "tle_line1": "1 64694U 25141A   25334.23717902  .00001074  00000+0  19762-3 0  9999",
        "tle_line2": "2 64694  98.0401 269.9775 0001436  82.9210 277.2158 14.67567435 22660"
      },
      "geometry": {
        "type": "Point",
        "coordinates": [
          93.27035466414007,
          -3.9239396287363597
        ]
      }
    },
    {
      "type": "Feature",
      "properties": {
        "norad_id": 64876,
        "name": "IONOSFERA-M 3",
        "group": "resource",
        "lat": 10.990564398466708,
        "lon": 121.94735127959677,
        "alt_km": 822.0662468372248,
        "timestamp": "2025-12-04T03:47:54.211777+00:00",
        "meta_object_name": "IONOSFERA-M 3",
        "meta_object_id": "2025-155A",
        "meta_epoch": "2025-12-03T11:48:09.730656",
        "meta_mean_motion": 14.2143721,
        "meta_eccentricity": 0.0002393,
        "meta_inclination": 98.577,
        "meta_ra_of_asc_node": 299.6203,
        "meta_arg_of_pericenter": 74.4493,
        "meta_mean_anomaly": 285.6949,
        "meta_ephemeris_type": 0,
        "meta_classification_type": "U",
        "meta_norad_cat_id": 64876,
        "meta_element_set_no": 999,
        "meta_rev_at_epoch": 1860,
        "meta_bstar": 7.2426e-05,
        "meta_mean_motion_dot": 1.16e-06,
        "meta_mean_motion_ddot": 0,
        "tle_line1": "1 64876U 25155A   25337.49177929  .00000116  00000+0  72426-4 0  9999",
        "tle_line2": "2 64876  98.5770 299.6203 0002393  74.4493 285.6949 14.21437210 18601"
      },
      "geometry": {
        "type": "Point",
        "coordinates": [
          121.94735127959677,
          10.990564398466708
        ]
      }
    },
    {
      "type": "Feature",
      "properties": {
        "norad_id": 64877,
        "name": "IONOSFERA-M 4",
        "group": "resource",
        "lat": -10.64987677218415,
        "lon": -58.18638910585,
        "alt_km": 824.5112584447261,
        "timestamp": "2025-12-04T03:47:54.211788+00:00",
        "meta_object_name": "IONOSFERA-M 4",
        "meta_object_id": "2025-155B",
        "meta_epoch": "2025-12-03T12:38:40.026624",
        "meta_mean_motion": 14.21438323,
        "meta_eccentricity": 0.0001742,
        "meta_inclination": 98.5768,
        "meta_ra_of_asc_node": 299.574,
        "meta_arg_of_pericenter": 72.9475,
        "meta_mean_anomaly": 287.1894,
        "meta_ephemeris_type": 0,
        "meta_classification_type": "U",
        "meta_norad_cat_id": 64877,
        "meta_element_set_no": 999,
        "meta_rev_at_epoch": 1860,
        "meta_bstar": 7.7585e-05,
        "meta_mean_motion_dot": 1.27e-06,
        "meta_mean_motion_ddot": 0,
        "tle_line1": "1 64877U 25155B   25337.52685216  .00000127  00000+0  77585-4 0  9990",
        "tle_line2": "2 64877  98.5768 299.5740 0001742  72.9475 287.1894 14.21438323 18606"
      },
      "geometry": {
        "type": "Point",
        "coordinates": [
          -58.18638910585,
          -10.64987677218415
        ]
      }
    },
    {
      "type": "Feature",
      "properties": {
        "norad_id": 64899,
        "name": "MICROCARB",
        "group": "resource",
        "lat": 22.65767137948848,
        "lon": 50.27396215898122,
        "alt_km": 664.1257699662456,
        "timestamp": "2025-12-04T03:47:54.211798+00:00",
        "meta_object_name": "MICROCARB",
        "meta_object_id": "2025-156A",
        "meta_epoch": "2025-12-03T04:51:17.943264",
        "meta_mean_motion": 14.72030926,
        "meta_eccentricity": 0.0016515,
        "meta_inclination": 98.0035,
        "meta_ra_of_asc_node": 52.7004,
        "meta_arg_of_pericenter": 174.3539,
        "meta_mean_anomaly": 185.7857,
        "meta_ephemeris_type": 0,
        "meta_classification_type": "U",
        "meta_norad_cat_id": 64899,
        "meta_element_set_no": 999,
        "meta_rev_at_epoch": 1913,
        "meta_bstar": 0.00017718925,
        "meta_mean_motion_dot": 1.065e-05,
        "meta_mean_motion_ddot": 0,
        "tle_line1": "1 64899U 25156A   25337.20229101  .00001065  00000+0  17719-3 0  9991",
        "tle_line2": "2 64899  98.0035  52.7004 0016515 174.3539 185.7857 14.72030926 19130"
      },
      "geometry": {
        "type": "Point",
        "coordinates": [
          50.27396215898122,
          22.65767137948848
        ]
      }
    },
    {
      "type": "Feature",
      "properties": {
        "norad_id": 64900,
        "name": "CO3D 3",
        "group": "resource",
        "lat": -56.223123876324195,
        "lon": -137.94986884492997,
        "alt_km": 541.4001198553851,
        "timestamp": "2025-12-04T03:47:54.211808+00:00",
        "meta_object_name": "CO3D 3",
        "meta_object_id": "2025-156B",
        "meta_epoch": "2025-11-29T13:08:11.122944",
        "meta_mean_motion": 15.11495615,
        "meta_eccentricity": 0.01368669,
        "meta_inclination": 97.6723,
        "meta_ra_of_asc_node": 49.0485,
        "meta_arg_of_pericenter": 160.1625,
        "meta_mean_anomaly": 200.5002,
        "meta_ephemeris_type": 0,
        "meta_classification_type": "U",
        "meta_norad_cat_id": 64900,
        "meta_element_set_no": 999,
        "meta_rev_at_epoch": 1920,
        "meta_bstar": 0.00046350794,
        "meta_mean_motion_dot": 9.779e-05,
        "meta_mean_motion_ddot": 0,
        "tle_line1": "1 64900U 25156B   25333.54735096  .00009779  00000+0  46351-3 0  9996",
        "tle_line2": "2 64900  97.6723  49.0485 0136866 160.1625 200.5002 15.11495615 19205"
      },
      "geometry": {
        "type": "Point",
        "coordinates": [
          -137.94986884492997,
          -56.223123876324195
        ]
      }
    },
    {
      "type": "Feature",
      "properties": {
        "norad_id": 64901,
        "name": "CO3D 4",
        "group": "resource",
        "lat": 18.441997068983284,
        "lon": 52.153080386137894,
        "alt_km": 506.3437815050038,
        "timestamp": "2025-12-04T03:47:54.211818+00:00",
        "meta_object_name": "CO3D 4",
        "meta_object_id": "2025-156C",
        "meta_epoch": "2025-12-01T18:50:45.474720",
        "meta_mean_motion": 15.20204195,
        "meta_eccentricity": 0.00012108,
        "meta_inclination": 97.4354,
        "meta_ra_of_asc_node": 52.3098,
        "meta_arg_of_pericenter": 238.3057,
        "meta_mean_anomaly": 121.806,
        "meta_ephemeris_type": 0,
        "meta_classification_type": "U",
        "meta_norad_cat_id": 64901,
        "meta_element_set_no": 999,
        "meta_rev_at_epoch": 1954,
        "meta_bstar": -1.4420799e-05,
        "meta_mean_motion_dot": -3.8e-06,
        "meta_mean_motion_ddot": 0,
        "tle_line1": "1 64901U 25156C   25335.78524855 -.00000380  00000+0 -14421-4 0  9999",
        "tle_line2": "2 64901  97.4354  52.3098 0001210 238.3057 121.8060 15.20204195 19549"
      },
      "geometry": {
        "type": "Point",
        "coordinates": [
          52.153080386137894,
          18.441997068983284
        ]
      }
    }
  ]
}